STARLINK-6168
1 57369U 23099AT  26090.83335647  .00019921  00000+0  11610-2 0  9991
2 57369  42.9995 115.3214 0001380 262.5450   2.7892 15.11647205  5716
